OBJECT_NAME,OBJECT_ID,EPOCH,MEAN_MOTION,ECCENTRICITY,INCLINATION,RA_OF_ASC_NODE,ARG_OF_PERICENTER,MEAN_ANOMALY,EPHEMERIS_TYPE,CLASSIFICATION_TYPE,NORAD_CAT_ID,ELEMENT_SET_NO,REV_AT_EPOCH,BSTAR,MEAN_MOTION_DOT,MEAN_MOTION_DDOT
STARLINK-37933,2026-133AA,2026-07-11T18:00:02.000160,15.35407621,.00013357,53.1589,200.8415,104.8543,356.8989,0,U,69532,999,582,-.23905142E-3,-.8712E-4,0
STARLINK-37890,2026-133AB,2026-07-11T18:00:02.000160,15.34394476,.00012954,53.1582,200.7638,92.1762,46.3382,0,U,69533,999,582,-.36276449E-3,-.1261E-3,0
STARLINK-37407,2026-133AC,2026-07-11T18:00:02.000160,15.33559266,.0001233,53.1585,200.6128,91.8508,120.2818,0,U,69534,999,587,-.49630848E-3,-.16664E-3,0
STARLINK-37888,2026-133AD,2026-07-11T18:00:02.000160,15.34397427,.00014449,53.1582,200.6653,66.4597,118.5831,0,U,69535,999,582,-.4584222E-3,-.15831E-3,0
STARLINK-37889,2026-133AE,2026-07-11T10:20:18.484800,15.49343632,.0001859,53.1560,202.6291,94.3949,265.7273,0,U,69536,999,584,.54605988E-3,.30076E-3,0
2026-134A,2026-134A,2026-07-11T18:49:40.970208,15.09443273,.00158096,97.7009,262.9853,181.9675,178.1494,0,U,69538,999,402,.17308133E-3,.2711E-4,0
2026-134B,2026-134B,2026-07-11T18:45:42.445728,15.09599918,.00159232,97.6984,262.9806,184.4090,175.7001,0,U,69539,999,401,.17001812E-3,.2673E-4,0
2026-134C,2026-134C,2026-07-11T18:44:54.187872,15.09631918,.00153106,97.6990,262.9833,185.4634,174.6431,0,U,69540,999,401,.16517309E-3,.2597E-4,0
2026-134D,2026-134D,2026-07-11T18:43:26.783904,15.09689490,.00163664,97.7028,262.9977,185.2121,174.8940,0,U,69541,999,401,.16219556E-3,.2554E-4,0
2026-134E,2026-134E,2026-07-11T18:42:53.377344,15.09711299,.00161028,97.7046,263.0044,185.9420,174.1621,0,U,69542,999,401,.16486177E-3,.2598E-4,0
2026-134F,2026-134F,2026-07-11T18:41:43.651680,15.09756555,.00153839,97.6999,262.9899,187.5478,172.5521,0,U,69543,999,401,.15978605E-3,.2519E-4,0
2026-134G,2026-134G,2026-07-11T18:39:35.687232,15.09841285,.00158631,97.7042,263.0065,188.5430,171.5531,0,U,69544,999,401,.16947374E-3,.2682E-4,0
2026-134H,2026-134H,2026-07-11T18:37:55.121088,15.09908151,.00156894,97.7027,263.0032,189.8050,170.2875,0,U,69545,999,400,.16178573E-3,.2562E-4,0
STARLINK-37880,2026-135A,2026-07-11T18:00:02.000160,15.49218721,.00007854,97.2843,221.0130,94.8353,107.2505,0,U,69546,999,525,-.46472265E-3,-.2531E-3,0
STARLINK-37881,2026-135B,2026-07-11T18:00:02.000160,15.58223606,.0001887,97.2847,221.0929,89.3196,304.5282,0,U,69547,999,525,-.41259774E-1,-.2737346E-1,0
STARLINK-37265,2026-135C,2026-07-11T18:00:02.000160,15.66869275,.00018963,97.2847,221.1478,72.6763,78.4920,0,U,69548,999,525,-.28266765E-1,-.2591421E-1,0
STARLINK-37871,2026-135D,2026-07-11T18:00:02.000160,15.56059127,.00017744,97.2853,221.0915,59.3783,316.2314,0,U,69549,999,525,-.4789193E-1,-.29042E-1,0
STARLINK-37865,2026-135E,2026-07-11T18:00:02.000160,15.57066865,.00012365,97.2852,221.1005,88.8256,311.3540,0,U,69550,999,525,-.38450334E-1,-.2426818E-1,0
STARLINK-37862,2026-135F,2026-07-11T18:00:02.000160,15.63327118,.00014343,97.2845,221.1339,87.5789,33.0522,0,U,69551,999,525,-.10116068E-1,-.837761E-2,0
STARLINK-37861,2026-135G,2026-07-11T18:00:02.000160,15.59228973,.00019332,97.2843,221.1160,56.2856,33.0481,0,U,69552,999,525,-.37379114E-1,-.2543108E-1,0
STARLINK-37859,2026-135H,2026-07-11T18:00:02.000160,15.60753600,.00017218,97.2845,221.1299,75.0301,34.5992,0,U,69553,999,525,-.21309648E-1,-.1571067E-1,0
STARLINK-37860,2026-135J,2026-07-11T18:00:02.000160,15.64773052,.00017636,97.2844,221.1575,78.7178,93.5575,0,U,69554,999,525,-.30797995E-1,-.2593969E-1,0
STARLINK-37858,2026-135K,2026-07-11T18:00:02.000160,15.63671957,.00019288,97.2839,221.1465,78.0161,72.9587,0,U,69555,999,525,-.3147499E-1,-.2545073E-1,0
STARLINK-37927,2026-135L,2026-07-11T18:00:02.000160,15.57158100,.00014615,97.2850,221.1212,77.5758,8.8986,0,U,69556,999,525,-.39040337E-1,-.2466728E-1,0
STARLINK-37929,2026-135M,2026-07-11T18:00:02.000160,15.52303526,.0001758,97.2849,221.0873,73.6526,294.2938,0,U,69557,999,525,-.54828974E-1,-.2897512E-1,0
STARLINK-37954,2026-135N,2026-07-11T18:00:02.000160,15.52534904,.00015894,97.2839,221.0915,65.9243,308.4783,0,U,69558,999,525,-.5503951E-1,-.2928139E-1,0
STARLINK-37958,2026-135P,2026-07-09T08:31:58.095264,15.80710505,.00014208,97.2842,218.6737,185.9739,174.1513,0,U,69559,999,376,.27486559E-3,.52572E-3,0
STARLINK-37950,2026-135Q,2026-07-11T18:00:02.000160,15.62127698,.00014181,97.2846,221.1600,81.5991,97.5874,0,U,69560,999,525,-.12832036E-1,-.1011183E-1,0
STARLINK-37952,2026-135R,2026-07-11T18:00:02.000160,15.56847055,.00017013,97.2845,221.1334,71.6385,43.7219,0,U,69561,999,525,-.40178227E-1,-.2503724E-1,0
STARLINK-37935,2026-135S,2026-07-11T18:00:02.000160,15.51514628,.00017208,97.2850,221.0933,86.6633,298.9079,0,U,69562,999,525,-.54381935E-1,-.2806602E-1,0
