STARLINK-37933          
1 69532U 26133AA  26192.75002315 -.00008712  00000+0 -23905-3 0  9994
2 69532  53.1589 200.8415 0001335 104.8543 356.8989 15.35407621  5822
STARLINK-37890          
1 69533U 26133AB  26192.75002315 -.00012610  00000+0 -36276-3 0  9992
2 69533  53.1582 200.7638 0001295  92.1762  46.3382 15.34394476  5829
STARLINK-37407          
1 69534U 26133AC  26192.75002315 -.00016664  00000+0 -49631-3 0  9995
2 69534  53.1585 200.6128 0001233  91.8508 120.2818 15.33559266  5872
STARLINK-37888          
1 69535U 26133AD  26192.75002315 -.00015831  00000+0 -45842-3 0  9991
2 69535  53.1582 200.6653 0001444  66.4597 118.5831 15.34397427  5823
STARLINK-37889          
1 69536U 26133AE  26192.43076950  .00030076  00000+0  54606-3 0  9997
2 69536  53.1560 202.6291 0001859  94.3949 265.7273 15.49343632  5843
2026-134A               
1 69538U 26134A   26192.78450197  .00002711  00000+0  17308-3 0  9990
2 69538  97.7009 262.9853 0015809 181.9675 178.1494 15.09443273  4028
2026-134B               
1 69539U 26134B   26192.78174127  .00002673  00000+0  17002-3 0  9995
2 69539  97.6984 262.9806 0015923 184.4090 175.7001 15.09599918  4018
2026-134C               
1 69540U 26134C   26192.78118273  .00002597  00000+0  16517-3 0  9992
2 69540  97.6990 262.9833 0015310 185.4634 174.6431 15.09631918  4014
2026-134D               
1 69541U 26134D   26192.78017111  .00002554  00000+0  16220-3 0  9996
2 69541  97.7028 262.9977 0016366 185.2121 174.8940 15.09689490  4013
2026-134E               
1 69542U 26134E   26192.77978446  .00002598  00000+0  16486-3 0  9995
2 69542  97.7046 263.0044 0016102 185.9420 174.1621 15.09711299  4010
2026-134F               
1 69543U 26134F   26192.77897745  .00002519  00000+0  15979-3 0  9997
2 69543  97.6999 262.9899 0015383 187.5478 172.5521 15.09756555  4019
2026-134G               
1 69544U 26134G   26192.77749638  .00002682  00000+0  16947-3 0  9992
2 69544  97.7042 263.0065 0015863 188.5430 171.5531 15.09841285  4014
2026-134H               
1 69545U 26134H   26192.77633242  .00002562  00000+0  16179-3 0  9990
2 69545  97.7027 263.0032 0015689 189.8050 170.2875 15.09908151  4002
STARLINK-37880          
1 69546U 26135A   26192.75002315 -.00025310  00000+0 -46472-3 0  9998
2 69546  97.2843 221.0130 0000785  94.8353 107.2505 15.49218721  5258
STARLINK-37881          
1 69547U 26135B   26192.75002315 -.02737346  00000+0 -41260-1 0  9998
2 69547  97.2847 221.0929 0001887  89.3196 304.5282 15.58223606  5259
STARLINK-37265          
1 69548U 26135C   26192.75002315 -.02591421  00000+0 -28267-1 0  9993
2 69548  97.2847 221.1478 0001896  72.6763  78.4920 15.66869275  5258
STARLINK-37871          
1 69549U 26135D   26192.75002315 -.02904200  00000+0 -47892-1 0  9992
2 69549  97.2853 221.0915 0001774  59.3783 316.2314 15.56059127  5256
STARLINK-37865          
1 69550U 26135E   26192.75002315 -.02426818  00000+0 -38450-1 0  9998
2 69550  97.2852 221.1005 0001236  88.8256 311.3540 15.57066865  5258
STARLINK-37862          
1 69551U 26135F   26192.75002315 -.00837761  00000+0 -10116-1 0  9999
2 69551  97.2845 221.1339 0001434  87.5789  33.0522 15.63327118  5254
STARLINK-37861          
1 69552U 26135G   26192.75002315 -.02543108  00000+0 -37379-1 0  9991
2 69552  97.2843 221.1160 0001933  56.2856  33.0481 15.59228973  5255
STARLINK-37859          
1 69553U 26135H   26192.75002315 -.01571067  00000+0 -21310-1 0  9994
2 69553  97.2845 221.1299 0001721  75.0301  34.5992 15.60753600  5255
STARLINK-37860          
1 69554U 26135J   26192.75002315 -.02593969  00000+0 -30798-1 0  9991
2 69554  97.2844 221.1575 0001763  78.7178  93.5575 15.64773052  5259
STARLINK-37858          
1 69555U 26135K   26192.75002315 -.02545073  00000+0 -31475-1 0  9998
2 69555  97.2839 221.1465 0001928  78.0161  72.9587 15.63671957  5254
STARLINK-37927          
1 69556U 26135L   26192.75002315 -.02466728  00000+0 -39040-1 0  9994
2 69556  97.2850 221.1212 0001461  77.5758   8.8986 15.57158100  5250
STARLINK-37929          
1 69557U 26135M   26192.75002315 -.02897512  00000+0 -54829-1 0  9996
2 69557  97.2849 221.0873 0001758  73.6526 294.2938 15.52303526  5257
STARLINK-37954          
1 69558U 26135N   26192.75002315 -.02928139  00000+0 -55040-1 0  9993
2 69558  97.2839 221.0915 0001589  65.9243 308.4783 15.52534904  5258
STARLINK-37958          
1 69559U 26135P   26190.35553351  .00052572  00000+0  27487-3 0  9990
2 69559  97.2842 218.6737 0001420 185.9739 174.1513 15.80710505  3761
STARLINK-37950          
1 69560U 26135Q   26192.75002315 -.01011183  00000+0 -12832-1 0  9999
2 69560  97.2846 221.1600 0001418  81.5991  97.5874 15.62127698  5252
STARLINK-37952          
1 69561U 26135R   26192.75002315 -.02503724  00000+0 -40178-1 0  9992
2 69561  97.2845 221.1334 0001701  71.6385  43.7219 15.56847055  5253
STARLINK-37935          
1 69562U 26135S   26192.75002315 -.02806602  00000+0 -54382-1 0  9996
2 69562  97.2850 221.0933 0001720  86.6633 298.9079 15.51514628  5257
